CTC1_L_00116016-03
1 61732U 22745LC  26037.47802083  .00000000  00000+0  00000-0 0  9998
2 61732  95.0000 180.0000 0000000   0.0000   0.0000 14.33516502    15
CTC1_L_00116016-04
1 61733U 24151YF  26037.47802083  .00000000  00000+0  00000-0 0  9992
2 61733  95.0000 180.0000 0000000   0.0000  90.0000 14.33516502    15
CTC1_L_00116017-01
1 61734U 22185XJ  26037.47802083  .00000000  00000+0  00000-0 0  9998
2 61734  95.0000 192.0000 0000000   0.0000 192.0000 14.33516502    12
CTC1_L_00116017-02
1 61735U 26824MP  26037.47802083  .00000000  00000+0  00000-0 0  9993
2 61735  95.0000 192.0000 0000000   0.0000 282.0000 14.33516502    13
CTC1_L_00116017-03
1 61736U 23783EA  26037.47802083  .00000000  00000+0  00000-0 0  9995
2 61736  95.0000 192.0000 0000000   0.0000  12.0000 14.33516502    15
CTC1_L_00116017-04
1 61737U 25478ML  26037.47802083  .00000000  00000+0  00000-0 0  9999
2 61737  95.0000 192.0000 0000000   0.0000 102.0000 14.33516502    16
CTC1_L_00116018-01
1 61738U 25454UD  26037.47802083  .00000000  00000+0  00000-0 0  9994
2 61738  95.0000 204.0000 0000000   0.0000 204.0000 14.33516502    14
CTC1_L_00116018-02
1 61739U 26428XI  26037.47802083  .00000000  00000+0  00000-0 0  9997
2 61739  95.0000 204.0000 0000000   0.0000 294.0000 14.33516502    14
CTC1_L_00116018-03
1 61740U 26145ZG  26037.47802083  .00000000  00000+0  00000-0 0  9995
2 61740  95.0000 204.0000 0000000   0.0000  24.0000 14.33516502    17
CTC1_L_00116018-04
1 61741U 23903PD  26037.47802083  .00000000  00000+0  00000-0 0  9995
2 61741  95.0000 204.0000 0000000   0.0000 114.0000 14.33516502    18
CTC1_L_00116019-01
1 61742U 23199LN  26037.47802083  .00000000  00000+0  00000-0 0  9993
2 61742  95.0000 216.0000 0000000   0.0000 216.0000 14.33516502    15
CTC1_L_00116019-02
1 61743U 26368MZ  26037.47802083  .00000000  00000+0  00000-0 0  9995
2 61743  95.0000 216.0000 0000000   0.0000 306.0000 14.33516502    16
CTC1_L_00116019-03
1 61744U 22620OZ  26037.47802083  .00000000  00000+0  00000-0 0  9993
2 61744  95.0000 216.0000 0000000   0.0000  36.0000 14.33516502    17
CTC1_L_00116019-04
1 61745U 23606KV  26037.47802083  .00000000  00000+0  00000-0 0  9999
2 61745  95.0000 216.0000 0000000   0.0000 126.0000 14.33516502    18
CTC1_L_00116020-01
1 61746U 26198WS  26037.47802083  .00000000  00000+0  00000-0 0  9999
2 61746  95.0000 228.0000 0000000   0.0000 228.0000 14.33516502    15
CTC1_L_00116020-02
1 61747U 22925TS  26037.47802083  .00000000  00000+0  00000-0 0  9994
2 61747  95.0000 228.0000 0000000   0.0000 318.0000 14.33516502    16
CTC1_L_00116020-03
1 61748U 23435UD  26037.47802083  .00000000  00000+0  00000-0 0  9992
2 61748  95.0000 228.0000 0000000   0.0000  48.0000 14.33516502    17
CTC1_L_00116020-04
1 61749U 24894RB  26037.47802083  .00000000  00000+0  00000-0 0  9993
2 61749  95.0000 228.0000 0000000   0.0000 138.0000 14.33516502    18
CTC1_L_00116021-01
1 61750U 25024OM  26037.47802083  .00000000  00000+0  00000-0 0  9991
2 61750  95.0000 240.0000 0000000   0.0000 240.0000 14.33516502    18
CTC1_L_00116021-02
1 61751U 23244HZ  26037.47802083  .00000000  00000+0  00000-0 0  9994
2 61751  95.0000 240.0000 0000000   0.0000 330.0000 14.33516502    19
CTC1_L_00116021-03
1 61752U 23121OX  26037.47802083  .00000000  00000+0  00000-0 0  9999
2 61752  95.0000 240.0000 0000000   0.0000  60.0000 14.33516502    10
CTC1_L_00116021-04
1 61753U 26239YQ  26037.47802083  .00000000  00000+0  00000-0 0  9993
2 61753  95.0000 240.0000 0000000   0.0000 150.0000 14.33516502    11
CTC1_L_00116022-01
1 61754U 26405UQ  26037.47802083  .00000000  00000+0  00000-0 0  9999
2 61754  95.0000 252.0000 0000000   0.0000 252.0000 14.33516502    18
CTC1_L_00116022-02
1 61755U 23798TE  26037.47802083  .00000000  00000+0  00000-0 0  9992
2 61755  95.0000 252.0000 0000000   0.0000 342.0000 14.33516502    19
CTC1_L_00116022-03
1 61756U 24248MJ  26037.47802083  .00000000  00000+0  00000-0 0  9994
2 61756  95.0000 252.0000 0000000   0.0000  72.0000 14.33516502    10
CTC1_L_00116022-04
1 61757U 22325LT  26037.47802083  .00000000  00000+0  00000-0 0  9999
2 61757  95.0000 252.0000 0000000   0.0000 162.0000 14.33516502    11
CTC1_L_00116023-01
1 61758U 22102JS  26037.47802083  .00000000  00000+0  00000-0 0  9993
2 61758  95.0000 264.0000 0000000   0.0000 264.0000 14.33516502    18
CTC1_L_00116023-02
1 61759U 25843TU  26037.47802083  .00000000  00000+0  00000-0 0  9999
2 61759  95.0000 264.0000 0000000   0.0000 354.0000 14.33516502    19
CTC1_L_00116023-03
1 61760U 23027XF  26037.47802083  .00000000  00000+0  00000-0 0  9993
2 61760  95.0000 264.0000 0000000   0.0000  84.0000 14.33516502    11
CTC1_L_00116023-04
1 61761U 22281XV  26037.47802083  .00000000  00000+0  00000-0 0  9995
2 61761  95.0000 264.0000 0000000   0.0000 174.0000 14.33516502    12
CTC1_L_00116024-01
1 61762U 22688GK  26037.47802083  .00000000  00000+0  00000-0 0  9997
2 61762  95.0000 276.0000 0000000   0.0000 276.0000 14.33516502    19
CTC1_L_00116024-02
1 61763U 24527TA  26037.47802083  .00000000  00000+0  00000-0 0  9992
2 61763  95.0000 276.0000 0000000   0.0000   6.0000 14.33516502    11
CTC1_L_00116024-03
1 61764U 25931ZA  26037.47802083  .00000000  00000+0  00000-0 0  9993
2 61764  95.0000 276.0000 0000000   0.0000  96.0000 14.33516502    11
CTC1_L_00116024-04
1 61765U 22672JK  26037.47802083  .00000000  00000+0  00000-0 0  9993
2 61765  95.0000 276.0000 0000000   0.0000 186.0000 14.33516502    12
CTC1_L_00116025-01
1 61766U 24295PE  26037.47802083  .00000000  00000+0  00000-0 0  9997
2 61766  95.0000 288.0000 0000000   0.0000 288.0000 14.33516502    19
CTC1_L_00116025-02
1 61767U 25317JT  26037.47802083  .00000000  00000+0  00000-0 0  9994
2 61767  95.0000 288.0000 0000000   0.0000  18.0000 14.33516502    11
CTC1_L_00116025-03
1 61768U 26230JJ  26037.47802083  .00000000  00000+0  00000-0 0  9990
2 61768  95.0000 288.0000 0000000   0.0000 108.0000 14.33516502    12
CTC1_L_00116025-04
1 61769U 23800FJ  26037.47802083  .00000000  00000+0  00000-0 0  9991
2 61769  95.0000 288.0000 0000000   0.0000 198.0000 14.33516502    12
CTC1_L_00116026-01
1 61770U 25864WQ  26037.47802083  .00000000  00000+0  00000-0 0  9995
2 61770  95.0000 300.0000 0000000   0.0000 300.0000 14.33516502    14
CTC1_L_00116026-02
1 61771U 24643ER  26037.47802083  .00000000  00000+0  00000-0 0  9990
2 61771  95.0000 300.0000 0000000   0.0000  30.0000 14.33516502    15
CTC1_L_00116026-03
1 61772U 23350BZ  26037.47802083  .00000000  00000+0  00000-0 0  9995
2 61772  95.0000 300.0000 0000000   0.0000 120.0000 14.33516502    16
CTC1_L_00116026-04
1 61773U 24324DL  26037.47802083  .00000000  00000+0  00000-0 0  9998
2 61773  95.0000 300.0000 0000000   0.0000 210.0000 14.33516502    17
CTC1_L_00116027-01
1 61774U 22638CW  26037.47802083  .00000000  00000+0  00000-0 0  9995
2 61774  95.0000 312.0000 0000000   0.0000 312.0000 14.33516502    14
CTC1_L_00116027-02
1 61775U 26974YO  26037.47802083  .00000000  00000+0  00000-0 0  9993
2 61775  95.0000 312.0000 0000000   0.0000  42.0000 14.33516502    15
CTC1_L_00116027-03
1 61776U 24291DA  26037.47802083  .00000000  00000+0  00000-0 0  9994
2 61776  95.0000 312.0000 0000000   0.0000 132.0000 14.33516502    16
CTC1_L_00116027-04
1 61777U 24830JA  26037.47802083  .00000000  00000+0  00000-0 0  9994
2 61777  95.0000 312.0000 0000000   0.0000 222.0000 14.33516502    17
CTC1_L_00116028-01
1 61778U 24696HI  26037.47802083  .00000000  00000+0  00000-0 0  9995
2 61778  95.0000 324.0000 0000000   0.0000 324.0000 14.33516502    14
CTC1_L_00116028-02
1 61779U 24942TC  26037.47802083  .00000000  00000+0  00000-0 0  9990
2 61779  95.0000 324.0000 0000000   0.0000  54.0000 14.33516502    15
CTC1_L_00116028-03
1 61780U 25509KI  26037.47802083  .00000000  00000+0  00000-0 0  9992
2 61780  95.0000 324.0000 0000000   0.0000 144.0000 14.33516502    17
CTC1_L_00116028-04
1 61781U 25219YJ  26037.47802083  .00000000  00000+0  00000-0 0  9991
2 61781  95.0000 324.0000 0000000   0.0000 234.0000 14.33516502    18
CTC1_L_00116029-01
1 61782U 26183PB  26037.47802083  .00000000  00000+0  00000-0 0  9993
2 61782  95.0000 336.0000 0000000   0.0000 336.0000 14.33516502    15
CTC1_L_00116029-02
1 61783U 25738CS  26037.47802083  .00000000  00000+0  00000-0 0  9999
2 61783  95.0000 336.0000 0000000   0.0000  66.0000 14.33516502    16
CTC1_L_00116029-03
1 61784U 25270IW  26037.47802083  .00000000  00000+0  00000-0 0  9991
2 61784  95.0000 336.0000 0000000   0.0000 156.0000 14.33516502    17
CTC1_L_00116029-04
1 61785U 23491DX  26037.47802083  .00000000  00000+0  00000-0 0  9995
2 61785  95.0000 336.0000 0000000   0.0000 246.0000 14.33516502    18
CTC1_L_00116030-01
1 61786U 22345AT  26037.47802083  .00000000  00000+0  00000-0 0  9993
2 61786  95.0000 348.0000 0000000   0.0000 348.0000 14.33516502    15
CTC1_L_00116030-02
1 61787U 24446TG  26037.47802083  .00000000  00000+0  00000-0 0  9998
2 61787  95.0000 348.0000 0000000   0.0000  78.0000 14.33516502    16
CTC1_L_00116030-03
1 61788U 23968FQ  26037.47802083  .00000000  00000+0  00000-0 0  9997
2 61788  95.0000 348.0000 0000000   0.0000 168.0000 14.33516502    17
CTC1_L_00116030-04
1 61789U 25478XK  26037.47802083  .00000000  00000+0  00000-0 0  9996
2 61789  95.0000 348.0000 0000000   0.0000 258.0000 14.33516502    18
